NORAD_CAT_ID,OBJECT_NAME,OBJECT_TYPE,EPOCH,MEAN_MOTION,ECCENTRICITY,INCLINATION,RA_OF_ASC_NODE,ARG_OF_PERICENTER,MEAN_ANOMALY,BSTAR,MEAN_MOTION_DOT,MEAN_MOTION_DDOT,TLE_LINE0,TLE_LINE1,TLE_LINE2,SEMIMAJOR_AXIS,PERIOD,APOGEE,PERIGEE,DECAYED
55413.0,STARLINK-5060,PAYLOAD,2023-11-23 15:08:55,14.98326386,0.0003094,70.0003,34.7915,269.8409,90.2395,-6.2074e-05,-8.34e-06,0.0,0 STARLINK-5060,1 55413U 23014Y   23327.63119641 -.00000834  00000-0 -62074-4 0  9996,2 55413  70.0003  34.7915 0003094 269.8409  90.2395 14.98326386 45246,6950.204,96.107,574.219,569.919,0.0
55413.0,STARLINK-5060,PAYLOAD,2023-11-24 13:34:48,14.98328358,0.000256,70.0013,32.4363,261.6616,98.4253,5.6496e-06,-2.6e-07,0.0,0 STARLINK-5060,1 55413U 23014Y   23328.56583662 -.00000026  00000-0  56496-5 0  9991,2 55413  70.0013  32.4363 0002560 261.6616  98.4253 14.98328358 46320,6950.198,96.107,573.842,570.284,0.0
55413.0,STARLINK-5060,PAYLOAD,2023-11-25 04:00:00,14.98327901,0.0002771,70.0006,30.9208,264.8704,95.2138,0.00013145,1.476e-05,0.0,0 STARLINK-5060,1 55413U 23014Y   23329.16667344  .00001476  00000-0  13145-3 0  9999,2 55413  70.0006  30.9208 0002771 264.8704  95.2138 14.98327901 45475,6950.199,96.107,573.99,570.138,0.0
55413.0,STARLINK-5060,PAYLOAD,2023-11-25 13:36:48,14.98333886,0.0002708,70.0009,29.9111,262.3815,97.7036,0.00018703,2.14e-05,0.0,0 STARLINK-5060,1 55413U 23014Y   23329.56722835  .00002140  00000-0  18703-3 0  9994,2 55413  70.0009  29.9111 0002708 262.3815  97.7036 14.98333886 46479,6950.181,96.107,573.928,570.164,0.0
55413.0,STARLINK-5060,PAYLOAD,2023-11-26 13:38:48,14.98341451,0.0002638,70.0004,27.3859,264.4879,95.5979,0.00015638,1.774e-05,0.0,0 STARLINK-5060,1 55413U 23014Y   23330.56862009  .00001774  00000-0  15638-3 0  9990,2 55413  70.0004  27.3859 0002638 264.4879  95.5979 14.98341451 46626,6950.157,96.106,573.856,570.189,0.0
55413.0,STARLINK-5060,PAYLOAD,2023-11-27 04:04:03,14.98316078,0.0002979,70.001,25.872,262.5991,97.483,-0.00026223,-3.219e-05,0.0,0 STARLINK-5060,1 55413U 23014Y   23331.16948828 -.00003219  00000-0 -26223-3 0  9991,2 55413  70.0010  25.8720 0002979 262.5991  97.4830 14.98316078 45774,6950.236,96.108,574.171,570.03,0.0
55413.0,STARLINK-5060,PAYLOAD,2023-11-27 13:40:52,14.98312253,0.0003029,70.0,24.8616,258.2209,101.861,-0.00026194,-3.216e-05,0.0,0 STARLINK-5060,1 55413U 23014Y   23331.57005392 -.00003216  00000-0 -26194-3 0  9990,2 55413  70.0000  24.8616 0003029 258.2209 101.8610 14.98312253 46775,6950.248,96.108,574.218,570.008,0.0
55413.0,STARLINK-5060,PAYLOAD,2023-11-28 12:06:44,14.98324263,0.0002406,70.0017,22.5053,250.4511,109.6388,-4.9139e-05,-6.79e-06,0.0,0 STARLINK-5060,1 55413U 23014Y   23332.50468680 -.00000679  00000-0 -49139-4 0  9992,2 55413  70.0017  22.5053 0002406 250.4511 109.6388 14.98324263 45974,6950.211,96.107,573.748,570.403,0.0
55413.0,STARLINK-5060,PAYLOAD,2023-11-28 13:42:52,14.98328825,0.0002585,70.0009,22.336,260.2967,99.79,-3.9255e-05,-5.61e-06,0.0,0 STARLINK-5060,1 55413U 23014Y   23332.57144400 -.00000561  00000-0 -39255-4 0  9998,2 55413  70.0009  22.3360 0002585 260.2967  99.7900 14.98328825 46929,6950.197,96.107,573.858,570.265,0.0
55413.0,STARLINK-5060,PAYLOAD,2023-11-29 04:08:04,14.98327505,0.0003103,69.9988,20.8206,263.9991,96.0815,0.00035672,4.166e-05,0.0,0 STARLINK-5060,1 55413U 23014Y   23333.17227392  .00004166  00000-0  35672-3 0  9998,2 55413  69.9988  20.8206 0003103 263.9991  96.0815 14.98327505 46073,6950.201,96.107,574.222,569.909,0.0
55413.0,STARLINK-5060,PAYLOAD,2023-11-29 13:44:52,14.98336042,0.0002481,70.0007,19.8112,257.4215,102.6667,0.00045,5.281e-05,0.0,0 STARLINK-5060,1 55413U 23014Y   23333.57282645  .00005281  00000-0  45000-3 0  9999,2 55413  70.0007  19.8112 0002481 257.4215 102.6667 14.98336042 47073,6950.174,96.107,573.764,570.315,0.0
55413.0,STARLINK-5060,PAYLOAD,2023-11-30 04:10:05,14.98334668,0.0002029,70.0038,18.2998,230.2795,129.8185,0.00014875,1.683e-05,0.0,0 STARLINK-5060,1 55413U 23014Y   23334.17367496  .00001683  00000-0  14875-3 0  9992,2 55413  70.0038  18.2998 0002029 230.2795 129.8185 14.98334668 46226,6950.178,96.107,573.454,570.633,0.0
55413.0,STARLINK-5060,PAYLOAD,2023-12-01 04:12:06,14.98365212,0.0002364,70.001,15.7729,252.2929,107.7972,-0.00054515,-6.597e-05,0.0,0 STARLINK-5060,1 55413U 23014Y   23335.17507004 -.00006597  00000-0 -54515-3 0  9990,2 55413  70.0010  15.7729 0002364 252.2929 107.7972 14.98365212 46379,6950.084,96.105,573.592,570.306,0.0
55413.0,STARLINK-5060,PAYLOAD,2023-12-01 10:36:38,14.98336772,0.0002597,70.0007,15.0986,257.3499,102.737,-0.00013268,-1.676e-05,0.0,0 STARLINK-5060,1 55413U 23014Y   23335.44211392 -.00001676  00000-0 -13268-3 0  9995,2 55413  70.0007  15.0986 0002597 257.3499 102.7370 14.98336772 46410,6950.172,96.107,573.842,570.232,0.0
55413.0,STARLINK-5060,PAYLOAD,2023-12-01 12:12:46,14.98336655,0.0002538,70.0009,14.9295,261.7061,98.381,-0.00018581,-2.31e-05,0.0,0 STARLINK-5060,1 55413U 23014Y   23335.50887526 -.00002310  00000-0 -18581-3 0  9999,2 55413  70.0009  14.9295 0002538 261.7061  98.3810 14.98336655 47366,6950.172,96.107,573.801,570.273,0.0
55413.0,STARLINK-5060,PAYLOAD,2023-12-02 12:14:46,14.98341368,0.0002259,70.0015,12.4072,246.7778,113.3143,0.00016317,1.855e-05,0.0,0 STARLINK-5060,1 55413U 23014Y   23336.51025724  .00001855  00000-0  16317-3 0  9991,2 55413  70.0015  12.4072 0002259 246.7778 113.3143 14.98341368 46573,6950.158,96.106,573.593,570.453,0.0
55413.0,STARLINK-5060,PAYLOAD,2023-12-03 04:16:09,14.98301368,0.0002728,70.0005,10.7217,269.4082,90.6764,-0.00025413,-3.122e-05,0.0,0 STARLINK-5060,1 55413U 23014Y   23337.17789242 -.00003122  00000-0 -25413-3 0  9994,2 55413  70.0005  10.7217 0002728 269.4082  90.6764 14.98301368 46678,6950.281,96.109,574.042,570.25,0.0
55413.0,STARLINK-5060,PAYLOAD,2023-12-03 12:16:50,14.98302227,0.0002639,70.0004,9.8797,272.3979,87.6878,-0.00023297,-2.869e-05,0.0,0 STARLINK-5060,1 55413U 23014Y   23337.51169700 -.00002869  00000-0 -23297-3 0  9998,2 55413  70.0004   9.8797 0002639 272.3979  87.6878 14.98302227 47665,6950.279,96.109,573.978,570.31,0.0
55413.0,STARLINK-5060,PAYLOAD,2023-12-04 04:18:10,14.98324583,0.0003554,69.9988,8.1922,286.6622,73.4147,-0.00033953,-4.142e-05,0.0,0 STARLINK-5060,1 55413U 23014Y   23338.17929274 -.00004142  00000-0 -33953-3 0  9997,2 55413  69.9988   8.1922 0003554 286.6622  73.4147 14.98324583 46823,6950.21,96.107,574.545,569.605,0.0
55413.0,STARLINK-5060,PAYLOAD,2023-12-04 12:18:51,14.98326502,0.000301,70.0005,7.3534,281.8709,78.2112,-0.00027303,-3.349e-05,0.0,0 STARLINK-5060,1 55413U 23014Y   23338.51309154 -.00003349  00000-0 -27303-3 0  9994,2 55413  70.0005   7.3534 0003010 281.8709  78.2112 14.98326502 47814,6950.204,96.107,574.161,569.977,0.0
55413.0,STARLINK-5060,PAYLOAD,2023-12-05 02:44:03,14.98312463,0.0003379,69.9985,5.8386,279.0228,81.0549,0.00029202,3.391e-05,0.0,0 STARLINK-5060,1 55413U 23014Y   23339.11392876  .00003391  00000-0  29202-3 0  9999,2 55413  69.9985   5.8386 0003379 279.0228  81.0549 14.98312463 46961,6950.247,96.108,574.461,569.764,0.0
55413.0,STARLINK-5060,PAYLOAD,2023-12-05 10:44:43,14.98318453,0.0002556,70.0005,4.9978,279.8205,80.2666,0.00033804,3.941e-05,0.0,0 STARLINK-5060,1 55413U 23014Y   23339.44772735  .00003941  00000-0  33804-3 0  9995,2 55413  70.0005   4.9978 0002556 279.8205  80.2666 14.98318453 47959,6950.229,96.108,573.87,570.317,0.0
55413.0,STARLINK-5060,PAYLOAD,2023-12-06 04:22:11,14.9835252,0.000252,69.9996,3.146,270.982,89.1051,8.1384e-05,8.79e-06,0.0,0 STARLINK-5060,1 55413U 23014Y   23340.18207270  .00000879  00000-0  81384-4 0  9999,2 55413  69.9996   3.1460 0002520 270.9820  89.1051 14.98352520 47126,6950.123,96.106,573.74,570.237,0.0
55413.0,STARLINK-5060,PAYLOAD,2023-12-06 10:46:43,14.98341757,0.0002274,70.0009,2.4736,267.7381,92.3518,0.00029179,3.391e-05,0.0,0 STARLINK-5060,1 55413U 23014Y   23340.44911090  .00003391  00000-0  29179-3 0  9995,2 55413  70.0009   2.4736 0002274 267.7381  92.3518 14.98341757 48107,6950.157,96.106,573.602,570.441,0.0
55413.0,STARLINK-5060,PAYLOAD,2023-12-07 04:24:12,14.98330375,0.0002636,70.0006,0.6216,272.3529,87.7328,-0.00011405,-1.453e-05,0.0,0 STARLINK-5060,1 55413U 23014Y   23341.18348202 -.00001453  00000-0 -11405-3 0  9998,2 55413  70.0006   0.6216 0002636 272.3529  87.7328 14.98330375 47273,6950.192,96.107,573.889,570.225,0.0
55413.0,STARLINK-5060,PAYLOAD,2023-12-07 12:24:53,14.98331465,0.0002652,70.0001,359.7794,273.0612,87.0244,-0.00011087,-1.416e-05,0.0,0 STARLINK-5060,1 55413U 23014Y   23341.51728012 -.00001416  00000-0 -11087-3 0  9991,2 55413  70.0001 359.7794 0002652 273.0612  87.0244 14.98331465 48267,6950.188,96.107,573.897,570.21,0.0
55413.0,STARLINK-5060,PAYLOAD,2023-12-08 04:26:12,14.98339484,0.0003,69.9992,358.0952,276.8114,83.2703,-0.00016718,-2.088e-05,0.0,0 STARLINK-5060,1 55413U 23014Y   23342.18487229 -.00002088  00000-0 -16718-3 0  9999,2 55413  69.9992 358.0952 0003000 276.8114  83.2703 14.98339484 47421,6950.164,96.106,574.114,569.944,0.0
55413.0,STARLINK-5060,PAYLOAD,2023-12-08 10:50:44,14.98340593,0.0002904,69.9994,357.422,275.4557,84.627,-0.00014161,-1.783e-05,0.0,0 STARLINK-5060,1 55413U 23014Y   23342.45190914 -.00001783  00000-0 -14161-3 0  9992,2 55413  69.9994 357.4220 0002904 275.4557  84.6270 14.98340593 48408,6950.16,96.106,574.043,570.007,0.0
55413.0,STARLINK-5060,PAYLOAD,2023-12-09 04:28:13,14.98329369,0.0002918,69.9992,355.5702,273.3007,86.7818,7.3975e-05,7.9e-06,0.0,0 STARLINK-5060,1 55413U 23014Y   23343.18626767  .00000790  00000-0  73975-4 0  9997,2 55413  69.9992 355.5702 0002918 273.3007  86.7818 14.98329369 47578,6950.195,96.107,574.088,570.032,0.0
55413.0,STARLINK-5060,PAYLOAD,2023-12-09 10:52:45,14.98330603,0.0002909,69.9992,354.8969,273.2053,86.8773,8.2162e-05,8.87e-06,0.0,0 STARLINK-5060,1 55413U 23014Y   23343.45330668  .00000887  00000-0  82162-4 0  9994,2 55413  69.9992 354.8969 0002909 273.2053  86.8773 14.98330603 48558,6950.191,96.107,574.078,570.034,0.0
